JAISAT-1                
1 44419U 19038F   24039.95255566  .00085570  00000+0  14646-2 0  9991
2 44419  97.6844  37.8463 0011551 152.5780 207.6083 15.50876154254946
DUCHIFAT-3              
1 44854U 19089C   24040.19434095  .00016738  00000+0  96249-3 0  9994
2 44854  36.9595 109.2838 0008011 119.9458 240.2084 15.11790560228649
TIANYAN 01              
1 44881U 19093C   24040.14444948  .00001714  00000+0  21573-3 0  9998
2 44881  97.8401 119.4093 0015180  29.5789 330.6280 14.83251017223919
RS-44 & BREEZE-KM R/B   
1 44909U 19096E   24039.87815506  .00000010  00000+0 -50877-6 0  9993
2 44909  82.5226 190.6748 0217257 353.8274   6.0157 12.79726362192437
BY70-2                  
1 45857U 20042B   24040.14972440  .00062483  00000+0  42085-2 0  9991
2 45857  97.9179 128.1567 0007909 287.9862  72.0502 15.06400524194995
SALSAT                  
1 46495U 20068K   24039.82552638  .00009904  00000+0  59793-3 0  9998
2 46495  97.8007 356.2342 0015675  40.7217 319.5181 15.10820369184760
RADFXSAT-2 (AO-109)     
1 47311U 21002C   24039.88653908  .00139817  00000+0  13381-2 0  9992
2 47311  60.6695 214.6459 0024986  71.4740 288.9078 15.65538305170958
UVSQ-SAT                
1 47438U 21006AB  24039.70178118  .00036713  00000+0  10587-2 0  9998
2 47438  97.3500  99.6161 0007125 328.8420  31.2401 15.35595779168794
LEDSAT                  
1 49069U 21073D   24040.15202527  .00017750  00000+0  82128-3 0  9998
2 49069  97.4545 112.5483 0021585  19.8520 340.3551 15.19986201136827
XW-3 (CAS-9)            
1 50466U 21131B   24040.18710648  .00001059  00000+0  35501-3 0  9995
2 50466  98.5349 125.8755 0004924 142.2563 217.8970 14.39347835111448
TEVEL-3                 
1 50988U 22002E   24040.17340341  .00062588  00000+0  14955-2 0  9993
2 50988  97.4008 112.4564 0005400 110.2832 249.8995 15.41271311115042
TEVEL-8                 
1 50989U 22002F   24040.13947610  .00061878  00000+0  14839-2 0  9994
2 50989  97.4027 112.5057 0005341 108.2735 251.9093 15.41165391115037
TEVEL-5                 
1 50998U 22002Q   24040.12935315  .00068489  00000+0  15358-2 0  9994
2 50998  97.4003 113.2096 0005932 102.6843 257.5069 15.43151093115093
TEVEL-6                 
1 50999U 22002R   24040.12955844  .00068699  00000+0  15423-2 0  9990
2 50999  97.4002 113.1954 0005924 102.3455 257.8456 15.43115787115095
TEVEL-1                 
1 51013U 22002AF  24040.12806401  .00062246  00000+0  14922-2 0  9997
2 51013  97.4002 112.3050 0005236 109.6186 250.5627 15.41174950115037
TEVEL-7                 
1 51062U 22002CG  24040.13485579  .00061513  00000+0  14719-2 0  9991
2 51062  97.4021 112.4716 0005337 108.8900 251.2926 15.41233579115032
TEVEL-4                 
1 51063U 22002CH  24040.15522624  .00061752  00000+0  14857-2 0  9995
2 51063  97.4019 112.4363 0005273 108.5796 251.6023 15.41067863115030
TEVEL-2                 
1 51069U 22002CP  24040.17347629  .00062076  00000+0  14824-2 0  9997
2 51069  97.4005 112.4232 0005350 110.1037 250.0786 15.41291592115047
GREENCUBE               
1 53106U 22080B   24036.98324556 -.00000003  00000+0  00000+0 0  9996
2 53106  70.1299 238.4559 0008315 132.7634 227.3726  6.42557805 36778
CYCLOPS (RS29S)         
1 53373U 22096D   24039.80751139  .00403135  00000+0  18267-2 0  9993
2 53373  97.3907 318.5603 0007532 104.4105 255.8001 15.82866730 84410
MONITOR-1 (RS32S)       
1 53374U 22096E   24039.88618531  .00199853  00000+0  13608-2 0  9993
2 53374  97.3874 317.5032 0006502  92.0065 268.1944 15.74277038 84367
KUZBASS-300 (RS34S)     
1 53375U 22096F   24040.13252157  .00106710  00000+0  13920-2 0  9999
2 53375  97.3979 315.5416 0004315  79.9399 280.2343 15.58327741 84246
UTMN (RS23S)            
1 53376U 22096G   24040.15319897  .00118392  00000+0  13873-2 0  9993
2 53376  97.3954 316.0870 0004975  84.1064 276.0760 15.61119177 84285
MIET-AIS (RS28S)        
1 53377U 22096H   24040.14597167  .00086417  00000+0  12631-2 0  9994
2 53377  97.3996 315.1112 0004054  81.7810 278.3904 15.55327330 84214
KAI-1 (RS26S)           
1 53378U 22096J   24040.15258408  .00057705  00000+0  10291-2 0  9996
2 53378  97.4041 313.9637 0003883  77.8695 282.2991 15.49890158 84138
ISOI (RS19S)            
1 53381U 22096M   24040.12368880  .00084676  00000+0  11744-2 0  9994
2 53381  97.4017 315.7242 0002455  85.9685 274.1850 15.56765943 84258
CUBESX-HSE-2 (RS21S)    
1 53383U 22096P   24040.12400623  .00117511  00000+0  14022-2 0  9995
2 53383  97.3967 316.3033 0002398  92.4373 267.7159 15.60656504 84292
SIREN (RS30S)           
1 53384U 22096Q   24040.14895440  .00072675  00000+0  11499-2 0  9999
2 53384  97.4010 314.9764 0001493  82.9821 277.1601 15.53200988 84206
GEOSCAN-EDELVEIS (RS20S)
1 53385U 22096R   24040.03647400  .00844131  32558-3  19235-2 0  9996
2 53385  97.3834 320.4830 0007798 128.4851 231.7126 15.97454538 84599
CAS-5A (FO-118)         
1 54684U 22167C   24040.16100797  .00028734  00000+0  12421-2 0  9991
2 54684  97.5861 182.8906 0011117 236.4759 123.5416 15.22372516 64620
STRATOSAT-TK 1 (RS52S)  
1 57167U 23091B   24040.14185265  .00015804  00000+0  10246-2 0  9995
2 57167  97.6333  93.8802 0016072 196.1418 163.9300 15.08082792 34084
UMKA 1 (RS40S)          
1 57172U 23091G   24040.15212636  .00007623  00000+0  52956-3 0  9990
2 57172  97.6333  93.5583 0016936 197.0302 163.0359 15.05709067 34065
CUBESX-HSE 3 (RS42S)    
1 57178U 23091N   24040.12512874  .00009491  00000+0  64673-3 0  9994
2 57178  97.6365  93.7038 0017761 191.0034 169.0807 15.06347423 34065
MONITOR-4 (RS57S)       
1 57182U 23091S   24040.08109078  .00009509  00000+0  65266-3 0  9991
2 57182  97.6359  93.5742 0018025 192.8348 167.2422 15.06070258 34055
MONITOR-2 (RS39S)       
1 57184U 23091U   24040.13694831  .00006217  00000+0  42880-3 0  9995
2 57184  97.6364  93.8213 0014411 183.8254 176.2865 15.06086244 34075
SVYATOBOR 1 (RS60S)     
1 57187U 23091X   24040.12900056  .00008148  00000+0  54723-3 0  9990
2 57187  97.6363  93.9889 0014071 181.8660 178.2517 15.06978024 34081
VIZARD-METEO (RS38S)    
1 57189U 23091Z   24040.11274201  .00010039  00000+0  65783-3 0  9997
2 57189  97.6347  94.1419 0013070 181.0187 179.1017 15.07840280 34090
NANOZOND 1 (RS49S)      
1 57190U 23091AA  24040.14350072  .00014377  00000+0  90609-3 0  9997
2 57190  97.6333  94.3307 0011463 184.9502 175.1615 15.09197805 34115
POLYTECH-UNIVERSE 3 (R*)
1 57191U 23091AB  24040.13254428  .00006095  00000+0  42135-3 0  9994
2 57191  97.6329  93.5786 0019454 203.0567 156.9788 15.05939795 34065
UTMN 2 (RS27S)          
1 57203U 23091AP  24040.13762655  .00009400  00000+0  62094-3 0  9993
2 57203  97.6357  94.1076 0013403 179.9972 180.1258 15.07556128 34099
ARCCUBE 1 (RS25S)       
1 57205U 23091AR  24040.11982988  .00016041  00000+0  99728-3 0  9999
2 57205  97.6304  94.3084 0011673 187.3750 172.7309 15.09667977 34112
KUZGTU 1 (RS47S)        
1 57217U 23091AV  24040.12528179  .00008918  00000+0  60899-3 0  9992
2 57217  97.6341  93.6313 0017624 192.2747 167.8053 15.06285065 34062
HADES-D (SO-121)        
1 58567U 23174CY  24040.16422075  .00037699  00000+0  18580-2 0  9992
2 58567  97.4707 116.6935 0014260 323.2616  36.7639 15.17750287 14141
CUTE-1 (CO-55)          
1 27844U 03031E   24039.93942969  .00000704  00000+0  33144-3 0  9999
2 27844  98.6795  48.7740 0010209 154.1158 206.0532 14.23069383 69437
CUBESAT XI-IV (CO-57)   
1 27848U 03031J   24039.96475040  .00000598  00000+0  28743-3 0  9997
2 27848  98.6827  49.1123 0009832 169.1067 191.0326 14.22539225 69162
CUBESAT XI-V            
1 28895U 05043F   24039.33111658  .00003190  00000+0  57878-3 0  9990
2 28895  98.1799 175.2225 0016810  50.2491 310.0191 14.66853070975419
CUTE-1.7+APD II (CO-65) 
1 32785U 08021C   24040.17566248  .00008113  00000+0  74861-3 0  9996
2 32785  97.7385   6.8975 0012715  43.1906 317.0309 14.94841745856267
AAUSAT-II               
1 32788U 08021F   24039.91344377  .00022999  00000+0  13741-2 0  9993
2 32788  97.5838  20.5146 0003851 258.6549 101.4248 15.11086992858760
SEEDS II (CO-66)        
1 32791U 08021J   24039.84841460  .00012447  00000+0  98513-3 0  9992
2 32791  97.6813  12.1476 0008038  14.0845 346.0601 15.00723542857100
SWISSCUBE               
1 35932U 09051B   24039.59707022  .00002135  00000+0  46990-3 0  9998
2 35932  98.4905 280.2395 0007653   7.3580 352.7730 14.58521893763708
BEESAT-1                
1 35933U 09051C   24039.92445507  .00001784  00000+0  39596-3 0  9996
2 35933  98.4834 281.6437 0006131  20.7442 339.4004 14.58328600763783
ITUPSAT1                
1 35935U 09051E   24040.12299769  .00001659  00000+0  37692-3 0  9995
2 35935  98.4932 281.6946 0008473  22.9096 337.2478 14.57324476763494
TISAT 1                 
1 36799U 10035E   24039.89451539  .00011367  00000+0  92250-3 0  9993
2 36799  98.1092 283.8920 0006742 285.0753  74.9723 14.99805004737667
M-CUBED & EXP-1 PRIME   
1 37855U 11061F   24039.83521279  .00073312  00000+0  12979-2 0  9997
2 37855 101.6867 144.0923 0079152  24.1911 336.3008 15.46535635672869
AEROCUBE 4.5A           
1 38767U 12048K   24040.17851235  .00016848  00000+0  10325-2 0  9997
2 38767  64.6636   7.5082 0103717  65.8739 295.3184 15.05859900241015
AEROCUBE 4.5B           
1 38768U 12048L   24039.95218405  .00029997  00000+0  13856-2 0  9999
2 38768  64.6616 301.9070 0083849  55.5079 305.3927 15.16950592241779
STRAND-1                
1 39090U 13009E   24039.46503027  .00000747  00000+0  27236-3 0  9999
2 39090  98.3811 231.3166 0007831 281.7657  78.2650 14.35881750573623
BRITE-AUSTRIA           
1 39091U 13009F   24039.76811448  .00000510  00000+0  19149-3 0  9994
2 39091  98.3848 230.8707 0009305 288.1537  71.8635 14.35676950573698
